{"type": "FeatureCollection", "features": [ {"type": "Feature", "properties": {"norad_id": 33799, "name": "COSMOS 2251 DEB", "group": "cosmos-2251-debris", "lat": 2.20226089762155, "lon": -126.14605276847237, "alt_km": 623.8791651485653, "timestamp": "2025-12-26T14:28:48.095674+00:00", "meta": {"OBJECT_NAME": "COSMOS 2251 DEB", "OBJECT_ID": "1993-036AQ", "EPOCH": "2025-12-26T05:50:37.541184", "MEAN_MOTION": 14.79831027, "ECCENTRICITY": 0.0022086, "INCLINATION": 74.0322, "RA_OF_ASC_NODE": 55.1933, "ARG_OF_PERICENTER": 120.8294, "MEAN_ANOMALY": 300.3148, "EPHEMERIS_TYPE": 0, "CLASSIFICATION_TYPE": "U", "NORAD_CAT_ID": 33799, "ELEMENT_SET_NO": 999, "REV_AT_EPOCH": 89011, "BSTAR": 0.0013709424, "MEAN_MOTION_DOT": 0.00010355, "MEAN_MOTION_DDOT": 0}, "tle": {"line1": "1 33799U 93036AQ  25360.24349006  .00010355  00000+0  13709-2 0  9991", "line2": "2 33799  74.0322  55.1933 0022086 120.8294 300.3148 14.79831027890111"}}, "geometry": {"type": "Point", "coordinates": [-126.14605276847237, 2.20226089762155]}}, {"type": "Feature", "properties": {"norad_id": 33805, "name": "COSMOS 2251 DEB", "group": "cosmos-2251-debris", "lat": -53.80621868407068, "lon": -98.07935986986666, "alt_km": 747.9322708964, "timestamp": "2025-12-26T14:28:48.095685+00:00", "meta": {"OBJECT_NAME": "COSMOS 2251 DEB", "OBJECT_ID": "1993-036AW", "EPOCH": "2025-12-26T04:51:44.058528", "MEAN_MOTION": 14.57885054, "ECCENTRICITY": 0.0059871, "INCLINATION": 74.0313, "RA_OF_ASC_NODE": 285.7198, "ARG_OF_PERICENTER": 110.757, "MEAN_ANOMALY": 250.0024, "EPHEMERIS_TYPE": 0, "CLASSIFICATION_TYPE": "U", "NORAD_CAT_ID": 33805, "ELEMENT_SET_NO": 999, "REV_AT_EPOCH": 89423, "BSTAR": 0.00025086962, "MEAN_MOTION_DOT": 1.148e-05, "MEAN_MOTION_DDOT": 0}, "tle": {"line1": "1 33805U 93036AW  25360.20259327  .00001148  00000+0  25087-3 0  9994", "line2": "2 33805  74.0313 285.7198 0059871 110.7570 250.0024 14.57885054894236"}}, "geometry": {"type": "Point", "coordinates": [-98.07935986986666, -53.80621868407068]}}, {"type": "Feature", "properties": {"norad_id": 33811, "name": "COSMOS 2251 DEB", "group": "cosmos-2251-debris", "lat": 24.031579333659085, "lon": -78.6739993009897, "alt_km": 530.4932578684393, "timestamp": "2025-12-26T14:28:48.095696+00:00", "meta": {"OBJECT_NAME": "COSMOS 2251 DEB", "OBJECT_ID": "1993-036BC", "EPOCH": "2025-12-26T05:22:15.921696", "MEAN_MOTION": 15.05668637, "ECCENTRICITY": 0.00309988, "INCLINATION": 73.8379, "RA_OF_ASC_NODE": 274.6834, "ARG_OF_PERICENTER": 353.08, "MEAN_ANOMALY": 135.5229, "EPHEMERIS_TYPE": 0, "CLASSIFICATION_TYPE": "U", "NORAD_CAT_ID": 33811, "ELEMENT_SET_NO": 999, "REV_AT_EPOCH": 90221, "BSTAR": 0.0010617864, "MEAN_MOTION_DOT": 0.00015498, "MEAN_MOTION_DDOT": 0}, "tle": {"line1": "1 33811U 93036BC  25360.22379539  .00015498  00000+0  10618-2 0  9997", "line2": "2 33811  73.8379 274.6834 0030998 353.0800 135.5229 15.05668637902215"}}, "geometry": {"type": "Point", "coordinates": [-78.6739993009897, 24.031579333659085]}}, {"type": "Feature", "properties": {"norad_id": 33815, "name": "COSMOS 2251 DEB", "group": "cosmos-2251-debris", "lat": 73.78593019853255, "lon": -114.47489504293853, "alt_km": 493.77266145895555, "timestamp": "2025-12-26T14:28:48.095706+00:00", "meta": {"OBJECT_NAME": "COSMOS 2251 DEB", "OBJECT_ID": "1993-036BG", "EPOCH": "2025-12-25T19:41:06.838656", "MEAN_MOTION": 15.21778143, "ECCENTRICITY": 0.00040974, "INCLINATION": 73.9516, "RA_OF_ASC_NODE": 149.0355, "ARG_OF_PERICENTER": 331.2535, "MEAN_ANOMALY": 152.2053, "EPHEMERIS_TYPE": 0, "CLASSIFICATION_TYPE": "U", "NORAD_CAT_ID": 33815, "ELEMENT_SET_NO": 999, "REV_AT_EPOCH": 88569, "BSTAR": 0.007771607, "MEAN_MOTION_DOT": 0.00180807, "MEAN_MOTION_DDOT": 0}, "tle": {"line1": "1 33815U 93036BG  25359.82021804  .00180807  00000+0  77716-2 0  9993", "line2": "2 33815  73.9516 149.0355 0004097 331.2535 152.2053 15.21778143885695"}}, "geometry": {"type": "Point", "coordinates": [-114.47489504293853, 73.78593019853255]}}, {"type": "Feature", "properties": {"norad_id": 33816, "name": "COSMOS 2251 DEB", "group": "cosmos-2251-debris", "lat": -73.74881250880459, "lon": -15.750183409843409, "alt_km": 1157.7001016662098, "timestamp": "2025-12-26T14:28:48.095717+00:00", "meta": {"OBJECT_NAME": "COSMOS 2251 DEB", "OBJECT_ID": "1993-036BH", "EPOCH": "2025-12-25T14:36:56.196000", "MEAN_MOTION": 13.81797239, "ECCENTRICITY": 0.0264117, "INCLINATION": 73.8953, "RA_OF_ASC_NODE": 83.5844, "ARG_OF_PERICENTER": 93.9633, "MEAN_ANOMALY": 269.1724, "EPHEMERIS_TYPE": 0, "CLASSIFICATION_TYPE": "U", "NORAD_CAT_ID": 33816, "ELEMENT_SET_NO": 999, "REV_AT_EPOCH": 84851, "BSTAR": 0.00036192, "MEAN_MOTION_DOT": 4.84e-06, "MEAN_MOTION_DDOT": 0}, "tle": {"line1": "1 33816U 93036BH  25359.60898375  .00000484  00000+0  36192-3 0  9991", "line2": "2 33816  73.8953  83.5844 0264117  93.9633 269.1724 13.81797239848511"}}, "geometry": {"type": "Point", "coordinates": [-15.750183409843409, -73.74881250880459]}}, {"type": "Feature", "properties": {"norad_id": 33818, "name": "COSMOS 2251 DEB", "group": "cosmos-2251-debris", "lat": -1.7155156761198265, "lon": 137.07563202115696, "alt_km": 536.3620515642842, "timestamp": "2025-12-26T14:28:48.095728+00:00", "meta": {"OBJECT_NAME": "COSMOS 2251 DEB", "OBJECT_ID": "1993-036BK", "EPOCH": "2025-12-26T02:19:10.254144", "MEAN_MOTION": 15.13620825, "ECCENTRICITY": 0.00237621, "INCLINATION": 74.0799, "RA_OF_ASC_NODE": 138.6139, "ARG_OF_PERICENTER": 120.4924, "MEAN_ANOMALY": 358.2684, "EPHEMERIS_TYPE": 0, "CLASSIFICATION_TYPE": "U", "NORAD_CAT_ID": 33818, "ELEMENT_SET_NO": 999, "REV_AT_EPOCH": 90064, "BSTAR": 0.0025679162, "MEAN_MOTION_DOT": 0.00046718, "MEAN_MOTION_DDOT": 0}, "tle": {"line1": "1 33818U 93036BK  25360.09664646  .00046718  00000+0  25679-2 0  9997", "line2": "2 33818  74.0799 138.6139 0023762 120.4924 358.2684 15.13620825900642"}}, "geometry": {"type": "Point", "coordinates": [137.07563202115696, -1.7155156761198265]}}, {"type": "Feature", "properties": {"norad_id": 33819, "name": "COSMOS 2251 DEB", "group": "cosmos-2251-debris", "lat": 50.83628224932346, "lon": -154.85695292673734, "alt_km": 716.3125518402949, "timestamp": "2025-12-26T14:28:48.095738+00:00", "meta": {"OBJECT_NAME": "COSMOS 2251 DEB", "OBJECT_ID": "1993-036BL", "EPOCH": "2025-12-26T06:39:17.545824", "MEAN_MOTION": 14.3226475, "ECCENTRICITY": 0.00895743, "INCLINATION": 74.1772, "RA_OF_ASC_NODE": 185.358, "ARG_OF_PERICENTER": 42.5988, "MEAN_ANOMALY": 130.4806, "EPHEMERIS_TYPE": 0, "CLASSIFICATION_TYPE": "U", "NORAD_CAT_ID": 33819, "ELEMENT_SET_NO": 999, "REV_AT_EPOCH": 87689, "BSTAR": 0.00051612126, "MEAN_MOTION_DOT": 1.431e-05, "MEAN_MOTION_DDOT": 0}, "tle": {"line1": "1 33819U 93036BL  25360.27728641  .00001431  00000+0  51612-3 0  9994", "line2": "2 33819  74.1772 185.3580 0089574  42.5988 130.4806 14.32264750876897"}}, "geometry": {"type": "Point", "coordinates": [-154.85695292673734, 50.83628224932346]}}, {"type": "Feature", "properties": {"norad_id": 33821, "name": "COSMOS 2251 DEB", "group": "cosmos-2251-debris", "lat": 66.3395003201676, "lon": 154.32454636657553, "alt_km": 468.66153530114025, "timestamp": "2025-12-26T14:28:48.095749+00:00", "meta": {"OBJECT_NAME": "COSMOS 2251 DEB", "OBJECT_ID": "1993-036BN", "EPOCH": "2025-12-25T17:42:39.732768", "MEAN_MOTION": 15.26124153, "ECCENTRICITY": 0.00492072, "INCLINATION": 74.0304, "RA_OF_ASC_NODE": 115.3421, "ARG_OF_PERICENTER": 144.3088, "MEAN_ANOMALY": 216.142, "EPHEMERIS_TYPE": 0, "CLASSIFICATION_TYPE": "U", "NORAD_CAT_ID": 33821, "ELEMENT_SET_NO": 999, "REV_AT_EPOCH": 75199, "BSTAR": 0.0012899322, "MEAN_MOTION_DOT": 0.00034606, "MEAN_MOTION_DDOT": 0}, "tle": {"line1": "1 33821U 93036BN  25359.73795987  .00034606  00000+0  12899-2 0  9996", "line2": "2 33821  74.0304 115.3421 0049207 144.3088 216.1420 15.26124153751991"}}, "geometry": {"type": "Point", "coordinates": [154.32454636657553, 66.3395003201676]}}, {"type": "Feature", "properties": {"norad_id": 33822, "name": "COSMOS 2251 DEB", "group": "cosmos-2251-debris", "lat": 6.41250793553342, "lon": 171.04610240262872, "alt_km": 949.6029886809329, "timestamp": "2025-12-26T14:28:48.095759+00:00", "meta": {"OBJECT_NAME": "COSMOS 2251 DEB", "OBJECT_ID": "1993-036BP", "EPOCH": "2025-12-25T13:16:47.544384", "MEAN_MOTION": 14.13138003, "ECCENTRICITY": 0.0152596, "INCLINATION": 74.0681, "RA_OF_ASC_NODE": 171.0597, "ARG_OF_PERICENTER": 214.3479, "MEAN_ANOMALY": 212.0747, "EPHEMERIS_TYPE": 0, "CLASSIFICATION_TYPE": "U", "NORAD_CAT_ID": 33822, "ELEMENT_SET_NO": 999, "REV_AT_EPOCH": 86235, "BSTAR": 0.0016849, "MEAN_MOTION_DOT": 3.495e-05, "MEAN_MOTION_DDOT": 0}, "tle": {"line1": "1 33822U 93036BP  25359.55332806  .00003495  00000+0  16849-2 0  9995", "line2": "2 33822  74.0681 171.0597 0152596 214.3479 212.0747 14.13138003862355"}}, "geometry": {"type": "Point", "coordinates": [171.04610240262872, 6.41250793553342]}}, {"type": "Feature", "properties": {"norad_id": 33823, "name": "COSMOS 2251 DEB", "group": "cosmos-2251-debris", "lat": -21.201428913065893, "lon": -48.49609898993367, "alt_km": 794.5956539565132, "timestamp": "2025-12-26T14:28:48.095770+00:00", "meta": {"OBJECT_NAME": "COSMOS 2251 DEB", "OBJECT_ID": "1993-036BQ", "EPOCH": "2025-12-26T02:02:22.107840", "MEAN_MOTION": 13.98985221, "ECCENTRICITY": 0.02094882, "INCLINATION": 73.8101, "RA_OF_ASC_NODE": 125.9415, "ARG_OF_PERICENTER": 248.9793, "MEAN_ANOMALY": 225.1156, "EPHEMERIS_TYPE": 0, "CLASSIFICATION_TYPE": "U", "NORAD_CAT_ID": 33823, "ELEMENT_SET_NO": 999, "REV_AT_EPOCH": 85796, "BSTAR": 0.00088517068, "MEAN_MOTION_DOT": 1.517e-05, "MEAN_MOTION_DDOT": 0}, "tle": {"line1": "1 33823U 93036BQ  25360.08497810  .00001517  00000+0  88517-3 0  9998", "line2": "2 33823  73.8101 125.9415 0209488 248.9793 225.1156 13.98985221857966"}}, "geometry": {"type": "Point", "coordinates": [-48.49609898993367, -21.201428913065893]}}]}